<?xml version="1.0" encoding="UTF-8"?>
<gpx version="1.1" creator="Rev" xmlns="http://www.topografix.com/GPX/1/1">
  <wpt lat="41.86100" lon="-87.62980"></wpt>
  <wpt lat="41.86100" lon="-87.62965"></wpt>
  <wpt lat="41.86100" lon="-87.62950"></wpt>
  <wpt lat="41.86100" lon="-87.62935"></wpt>
  <wpt lat="41.86100" lon="-87.62920"></wpt>
  <wpt lat="41.86100" lon="-87.62905"></wpt>
  <wpt lat="41.86100" lon="-87.62890"></wpt>
  <wpt lat="41.86100" lon="-87.62875"></wpt>
  <wpt lat="41.86100" lon="-87.62860"></wpt>
  <wpt lat="41.86100" lon="-87.62845"></wpt>
  <wpt lat="41.86100" lon="-87.62830"></wpt>
  <wpt lat="41.86100" lon="-87.62815"></wpt>
  <wpt lat="41.86100" lon="-87.62800"></wpt>
  <wpt lat="41.86100" lon="-87.62785"></wpt>
  <wpt lat="41.86100" lon="-87.62770"></wpt>
  <wpt lat="41.86100" lon="-87.62755"></wpt>
  <wpt lat="41.86100" lon="-87.62740"></wpt>
  <wpt lat="41.86100" lon="-87.62725"></wpt>
  <wpt lat="41.86100" lon="-87.62710"></wpt>
  <wpt lat="41.86100" lon="-87.62695"></wpt>
  <wpt lat="41.86100" lon="-87.62680"></wpt>
</gpx>
