<?xml version="1.0" encoding="UTF-8"?>
<gpx version="1.1" creator="Rev" xmlns="http://www.topografix.com/GPX/1/1">
  <!-- w google sheets -->
  <wpt lat="41.87450" lon="-87.63800"></wpt>
  <wpt lat="41.87450" lon="-87.63750"></wpt>
  <wpt lat="41.87450" lon="-87.63700"></wpt>
  <wpt lat="41.87450" lon="-87.63650"></wpt>
  <wpt lat="41.87450" lon="-87.63600"></wpt>
  <wpt lat="41.87450" lon="-87.63550"></wpt>
  <wpt lat="41.87450" lon="-87.63500"></wpt>
  <wpt lat="41.87450" lon="-87.63450"></wpt>
  <wpt lat="41.87450" lon="-87.63400"></wpt>
  <wpt lat="41.87450" lon="-87.63350"></wpt>
  <wpt lat="41.87450" lon="-87.63300"></wpt>
  <wpt lat="41.87450" lon="-87.63250"></wpt>
  <wpt lat="41.87450" lon="-87.63200"></wpt>
  <wpt lat="41.87450" lon="-87.63150"></wpt>
  <wpt lat="41.87450" lon="-87.63100"></wpt>
  <wpt lat="41.87450" lon="-87.63050"></wpt>
  <wpt lat="41.87450" lon="-87.63000"></wpt>
  <wpt lat="41.87450" lon="-87.62950"></wpt>
  <wpt lat="41.87450" lon="-87.62900"></wpt>
  <wpt lat="41.87450" lon="-87.62850"></wpt>
  <wpt lat="41.87450" lon="-87.62800"></wpt>
  <wpt lat="41.87450" lon="-87.62750"></wpt>
  <wpt lat="41.87450" lon="-87.62700"></wpt>
  <wpt lat="41.87450" lon="-87.62650"></wpt>
  <wpt lat="41.87450" lon="-87.62600"></wpt>
  <wpt lat="41.87450" lon="-87.62550"></wpt>
  <wpt lat="41.87450" lon="-87.62500"></wpt>
  <wpt lat="41.87450" lon="-87.62450"></wpt>
  <wpt lat="41.87450" lon="-87.62400"></wpt>
  <wpt lat="41.87450" lon="-87.62350"></wpt>
  <wpt lat="41.87450" lon="-87.62300"></wpt>
  <wpt lat="41.87450" lon="-87.62250"></wpt>
  <wpt lat="41.87450" lon="-87.62200"></wpt>
  <wpt lat="41.87450" lon="-87.62150"></wpt>
  <wpt lat="41.87450" lon="-87.62100"></wpt>
  <wpt lat="41.87450" lon="-87.62050"></wpt>
  <wpt lat="41.87450" lon="-87.62000"></wpt>
  <wpt lat="41.87500" lon="-87.62000"></wpt>
  <wpt lat="41.87550" lon="-87.62000"></wpt>
  <wpt lat="41.87600" lon="-87.62000"></wpt>
  <wpt lat="41.87650" lon="-87.62000"></wpt>
  <wpt lat="41.87700" lon="-87.62000"></wpt>
  <wpt lat="41.87750" lon="-87.62000"></wpt>
  <wpt lat="41.87800" lon="-87.62000"></wpt>
  <wpt lat="41.87850" lon="-87.62000"></wpt>
  <wpt lat="41.87900" lon="-87.62000"></wpt>
  <wpt lat="41.87950" lon="-87.62000"></wpt>
  <wpt lat="41.88000" lon="-87.62000"></wpt>
  <wpt lat="41.88050" lon="-87.62000"></wpt>
  <wpt lat="41.88100" lon="-87.62000"></wpt>
  <wpt lat="41.88150" lon="-87.62000"></wpt>
  <wpt lat="41.88200" lon="-87.62000"></wpt>
  <wpt lat="41.88250" lon="-87.62000"></wpt>
  <wpt lat="41.88300" lon="-87.62000"></wpt>
  <wpt lat="41.88350" lon="-87.62000"></wpt>
  <wpt lat="41.88400" lon="-87.62000"></wpt>
  <wpt lat="41.88450" lon="-87.62000"></wpt>
  <wpt lat="41.88500" lon="-87.62000"></wpt>
  <wpt lat="41.88550" lon="-87.62000"></wpt>
  <wpt lat="41.88600" lon="-87.62000"></wpt>
  <wpt lat="41.88650" lon="-87.62000"></wpt>
  <wpt lat="41.88700" lon="-87.62000"></wpt>
  <wpt lat="41.88750" lon="-87.62000"></wpt>
  <wpt lat="41.88800" lon="-87.62000"></wpt>
  <wpt lat="41.88800" lon="-87.62050"></wpt>
  <wpt lat="41.88800" lon="-87.62100"></wpt>
  <wpt lat="41.88800" lon="-87.62150"></wpt>
  <wpt lat="41.88800" lon="-87.62200"></wpt>
  <wpt lat="41.88800" lon="-87.62250"></wpt>
  <wpt lat="41.88800" lon="-87.62300"></wpt>
  <wpt lat="41.88800" lon="-87.62350"></wpt>
  <wpt lat="41.88800" lon="-87.62400"></wpt>
  <wpt lat="41.88800" lon="-87.62450"></wpt>
  <wpt lat="41.88800" lon="-87.62500"></wpt>
  <wpt lat="41.88800" lon="-87.62550"></wpt>
  <wpt lat="41.88800" lon="-87.62600"></wpt>
  <wpt lat="41.88800" lon="-87.62650"></wpt>
  <wpt lat="41.88800" lon="-87.62700"></wpt>
  <wpt lat="41.88800" lon="-87.62750"></wpt>
  <wpt lat="41.88800" lon="-87.62800"></wpt>
  <wpt lat="41.88800" lon="-87.62850"></wpt>
  <wpt lat="41.88800" lon="-87.62900"></wpt>
  <wpt lat="41.88800" lon="-87.62950"></wpt>
  <wpt lat="41.88800" lon="-87.63000"></wpt>
  <wpt lat="41.88800" lon="-87.63050"></wpt>
  <wpt lat="41.88800" lon="-87.63100"></wpt>
  <wpt lat="41.88800" lon="-87.63150"></wpt>
  <wpt lat="41.88800" lon="-87.63200"></wpt>
  <wpt lat="41.88800" lon="-87.63250"></wpt>
  <wpt lat="41.88800" lon="-87.63300"></wpt>
  <wpt lat="41.88800" lon="-87.63350"></wpt>
  <wpt lat="41.88800" lon="-87.63400"></wpt>
  <wpt lat="41.88800" lon="-87.63450"></wpt>
  <wpt lat="41.88800" lon="-87.63500"></wpt>
  <wpt lat="41.88800" lon="-87.63550"></wpt>
  <wpt lat="41.88800" lon="-87.63600"></wpt>
  <wpt lat="41.88800" lon="-87.63650"></wpt>
  <wpt lat="41.88800" lon="-87.63700"></wpt>
  <wpt lat="41.88800" lon="-87.63750"></wpt>
  <wpt lat="41.88800" lon="-87.63800"></wpt>
  <wpt lat="41.88750" lon="-87.63800"></wpt>
  <wpt lat="41.88700" lon="-87.63800"></wpt>
  <wpt lat="41.88650" lon="-87.63800"></wpt>
  <wpt lat="41.88600" lon="-87.63800"></wpt>
  <wpt lat="41.88550" lon="-87.63800"></wpt>
  <wpt lat="41.88500" lon="-87.63800"></wpt>
  <wpt lat="41.88450" lon="-87.63800"></wpt>
  <wpt lat="41.88400" lon="-87.63800"></wpt>
  <wpt lat="41.88350" lon="-87.63800"></wpt>
  <wpt lat="41.88300" lon="-87.63800"></wpt>
  <wpt lat="41.88250" lon="-87.63800"></wpt>
  <wpt lat="41.88200" lon="-87.63800"></wpt>
  <wpt lat="41.88150" lon="-87.63800"></wpt>
  <wpt lat="41.88100" lon="-87.63800"></wpt>
  <wpt lat="41.88050" lon="-87.63800"></wpt>
  <wpt lat="41.88000" lon="-87.63800"></wpt>
  <wpt lat="41.87950" lon="-87.63800"></wpt>
  <wpt lat="41.87900" lon="-87.63800"></wpt>
  <wpt lat="41.87850" lon="-87.63800"></wpt>
  <wpt lat="41.87800" lon="-87.63800"></wpt>
  <wpt lat="41.87750" lon="-87.63800"></wpt>
  <wpt lat="41.87700" lon="-87.63800"></wpt>
  <wpt lat="41.87650" lon="-87.63800"></wpt>
  <wpt lat="41.87600" lon="-87.63800"></wpt>
  <wpt lat="41.87550" lon="-87.63800"></wpt>
  <wpt lat="41.87500" lon="-87.63800"></wpt>
  <wpt lat="41.87450" lon="-87.63800"></wpt>
  <wpt lat="41.87450" lon="-87.63800"></wpt>
</gpx>
